[
    {
        "Altitude(m)": 571293.8995516108,
        "Argument of Periapsis(deg)": 0.019868973332140504,
        "Eccentricity": 0.0,
        "Inclination(deg)": 53.0,
        "Latitude(deg)": -51.73340452495848,
        "Longitude(deg)": 25.79755531202137,
        "Mean Anomaly(deg)": -78.8161213972672,
        "RAAN(deg)": 199.97043010558403,
        "Satellite Name": "Starlink Shell 1 895",
        "Satellite Number": 895,
        "Semi-Major Axis(m)": 6931778.249405717,
        "Time(s)": 570
    },
    {
        "Altitude(m)": 571231.3217173709,
        "Argument of Periapsis(deg)": 0.02021755181165174,
        "Eccentricity": 0.0,
        "Inclination(deg)": 53.0,
        "Latitude(deg)": -51.57366639712523,
        "Longitude(deg)": 26.72714772736269,
        "Mean Anomaly(deg)": -78.18929019371052,
        "RAAN(deg)": 199.9699113355066,
        "Satellite Name": "Starlink Shell 1 895",
        "Satellite Number": 895,
        "Semi-Major Axis(m)": 6931778.249405717,
        "Time(s)": 580
    },
    {
        "Altitude(m)": 571165.5070279778,
        "Argument of Periapsis(deg)": 0.020566130291162974,
        "Eccentricity": 0.0,
        "Inclination(deg)": 53.0,
        "Latitude(deg)": -51.40595176531151,
        "Longitude(deg)": 27.649802418010744,
        "Mean Anomaly(deg)": -77.56245899015389,
        "RAAN(deg)": 199.96939256542908,
        "Satellite Name": "Starlink Shell 1 895",
        "Satellite Number": 895,
        "Semi-Major Axis(m)": 6931778.249405717,
        "Time(s)": 590
    },
    {
        "Altitude(m)": 571096.4816804955,
        "Argument of Periapsis(deg)": 0.020914708770674213,
        "Eccentricity": 0.0,
        "Inclination(deg)": 53.0,
        "Latitude(deg)": -51.23036513354304,
        "Longitude(deg)": 28.565279976790908,
        "Mean Anomaly(deg)": -76.93562778659714,
        "RAAN(deg)": 199.96887379535164,
        "Satellite Name": "Starlink Shell 1 895",
        "Satellite Number": 895,
        "Semi-Major Axis(m)": 6931778.249405717,
        "Time(s)": 600
    },
    {
        "Altitude(m)": 571024.2731446149,
        "Argument of Periapsis(deg)": 0.021263287250185448,
        "Eccentricity": 0.0,
        "Inclination(deg)": 53.0,
        "Latitude(deg)": -51.04701399893532,
        "Longitude(deg)": 29.47335717476798,
        "Mean Anomaly(deg)": -76.30879658304043,
        "RAAN(deg)": 199.96835502527415,
        "Satellite Name": "Starlink Shell 1 895",
        "Satellite Number": 895,
        "Semi-Major Axis(m)": 6931778.249405717,
        "Time(s)": 610
    },
    {
        "Altitude(m)": 570948.9101507375,
        "Argument of Periapsis(deg)": 0.021611865729696686,
        "Eccentricity": 0.0,
        "Inclination(deg)": 53.0,
        "Latitude(deg)": -50.85600857162885,
        "Longitude(deg)": 30.37382749305555,
        "Mean Anomaly(deg)": -75.68196537948369,
        "RAAN(deg)": 199.9678362551967,
        "Satellite Name": "Starlink Shell 1 895",
        "Satellite Number": 895,
        "Semi-Major Axis(m)": 6931778.249405717,
        "Time(s)": 620
    },
    {
        "Altitude(m)": 570870.4226775107,
        "Argument of Periapsis(deg)": 0.02196044420920792,
        "Eccentricity": 0.0,
        "Inclination(deg)": 53.0,
        "Latitude(deg)": -50.65746149745224,
        "Longitude(deg)": 31.266499902285517,
        "Mean Anomaly(deg)": -75.05513417592694,
        "RAAN(deg)": 199.96731748511922,
        "Satellite Name": "Starlink Shell 1 895",
        "Satellite Number": 895,
        "Semi-Major Axis(m)": 6931778.249405717,
        "Time(s)": 630
    },
    {
        "Altitude(m)": 570788.8419388324,
        "Argument of Periapsis(deg)": 0.02230902268871916,
        "Eccentricity": 0.0,
        "Inclination(deg)": 53.0,
        "Latitude(deg)": -50.451487584602695,
        "Longitude(deg)": 32.15120009638082,
        "Mean Anomaly(deg)": -74.42830297237028,
        "RAAN(deg)": 199.96679871504173,
        "Satellite Name": "Starlink Shell 1 895",
        "Satellite Number": 895,
        "Semi-Major Axis(m)": 6931778.249405717,
        "Time(s)": 640
    },
    {
        "Altitude(m)": 570704.2003702635,
        "Argument of Periapsis(deg)": 0.022657601168230398,
        "Eccentricity": 0.0,
        "Inclination(deg)": 53.0,
        "Latitude(deg)": -50.238203535541516,
        "Longitude(deg)": 33.027769142266905,
        "Mean Anomaly(deg)": -73.80147176881353,
        "RAAN(deg)": 199.96627994496427,
        "Satellite Name": "Starlink Shell 1 895",
        "Satellite Number": 895,
        "Semi-Major Axis(m)": 6931778.249405717,
        "Time(s)": 650
    },
    {
        "Altitude(m)": 570616.5316149527,
        "Argument of Periapsis(deg)": 0.023006179647741636,
        "Eccentricity": 0.0,
        "Inclination(deg)": 53.0,
        "Latitude(deg)": -50.01772768517436,
        "Longitude(deg)": 33.89606375273363,
        "Mean Anomaly(deg)": -73.17464056525687,
        "RAAN(deg)": 199.9657611748868,
        "Satellite Name": "Starlink Shell 1 895",
        "Satellite Number": 895,
        "Semi-Major Axis(m)": 6931778.249405717,
        "Time(s)": 660
    },
    {
        "Altitude(m)": 570525.8705090147,
        "Argument of Periapsis(deg)": 0.023354758127252868,
        "Eccentricity": 0.0,
        "Inclination(deg)": 53.0,
        "Latitude(deg)": -49.79017974627961,
        "Longitude(deg)": 34.7559565064437,
        "Mean Anomaly(deg)": -72.54780936170009,
        "RAAN(deg)": 199.96524240480932,
        "Satellite Name": "Starlink Shell 1 895",
        "Satellite Number": 895,
        "Semi-Major Axis(m)": 6931778.249405717,
        "Time(s)": 670
    },
    {
        "Altitude(m)": 570432.2530663721,
        "Argument of Periapsis(deg)": 0.023703336606764106,
        "Eccentricity": 0.0,
        "Inclination(deg)": 53.0,
        "Latitude(deg)": -49.55568056303277,
        "Longitude(deg)": 35.60733450727629,
        "Mean Anomaly(deg)": -71.92097815814334,
        "RAAN(deg)": 199.96472363473188,
        "Satellite Name": "Starlink Shell 1 895",
        "Satellite Number": 895,
        "Semi-Major Axis(m)": 6931778.249405717,
        "Time(s)": 680
    },
    {
        "Altitude(m)": 570335.7164630853,
        "Argument of Periapsis(deg)": 0.024051915086275345,
        "Eccentricity": 0.0,
        "Inclination(deg)": 53.0,
        "Latitude(deg)": -49.31435187335068,
        "Longitude(deg)": 36.45009951385213,
        "Mean Anomaly(deg)": -71.2941469545867,
        "RAAN(deg)": 199.96420486465436,
        "Satellite Name": "Starlink Shell 1 895",
        "Satellite Number": 895,
        "Semi-Major Axis(m)": 6931778.249405717,
        "Time(s)": 690
    },
    {
        "Altitude(m)": 570236.2990211801,
        "Argument of Periapsis(deg)": 0.024400493565786583,
        "Eccentricity": 0.0,
        "Inclination(deg)": 53.0,
        "Latitude(deg)": -49.06631608067497,
        "Longitude(deg)": 37.2841680314413,
        "Mean Anomaly(deg)": -70.66731575102993,
        "RAAN(deg)": 199.96368609457687,
        "Satellite Name": "Starlink Shell 1 895",
        "Satellite Number": 895,
        "Semi-Major Axis(m)": 6931778.249405717,
        "Time(s)": 700
    },
    {
        "Altitude(m)": 570134.0401919518,
        "Argument of Periapsis(deg)": 0.024749072045297815,
        "Eccentricity": 0.0,
        "Inclination(deg)": 53.0,
        "Latitude(deg)": -48.811696035703555,
        "Longitude(deg)": 38.10946985837576,
        "Mean Anomaly(deg)": -70.04048454747326,
        "RAAN(deg)": 199.9631673244994,
        "Satellite Name": "Starlink Shell 1 895",
        "Satellite Number": 895,
        "Semi-Major Axis(m)": 6931778.249405717,
        "Time(s)": 710
    },
    {
        "Altitude(m)": 570028.9805387773,
        "Argument of Periapsis(deg)": 0.025097650524809053,
        "Eccentricity": 0.0,
        "Inclination(deg)": 53.0,
        "Latitude(deg)": -48.5506148284654,
        "Longitude(deg)": 38.92594811758344,
        "Mean Anomaly(deg)": -69.41365334391651,
        "RAAN(deg)": 199.96264855442197,
        "Satellite Name": "Starlink Shell 1 895",
        "Satellite Number": 895,
        "Semi-Major Axis(m)": 6931778.249405717,
        "Time(s)": 720
    },
    {
        "Altitude(m)": 569921.1617194186,
        "Argument of Periapsis(deg)": 0.02544622900432029,
        "Eccentricity": 0.0,
        "Inclination(deg)": 53.0,
        "Latitude(deg)": -48.28319559104264,
        "Longitude(deg)": 39.73355926506798,
        "Mean Anomaly(deg)": -68.78682214035983,
        "RAAN(deg)": 199.96212978434448,
        "Satellite Name": "Starlink Shell 1 895",
        "Satellite Number": 895,
        "Semi-Major Axis(m)": 6931778.249405717,
        "Time(s)": 730
    },
    {
        "Altitude(m)": 569810.6264678813,
        "Argument of Periapsis(deg)": 0.02579480748383153,
        "Eccentricity": 0.0,
        "Inclination(deg)": 53.0,
        "Latitude(deg)": -48.00956131114791,
        "Longitude(deg)": 40.53227156696602,
        "Mean Anomaly(deg)": -68.1599909368032,
        "RAAN(deg)": 199.96161101426702,
        "Satellite Name": "Starlink Shell 1 895",
        "Satellite Number": 895,
        "Semi-Major Axis(m)": 6931778.249405717,
        "Time(s)": 740
    },
    {
        "Altitude(m)": 569697.4185757296,
        "Argument of Periapsis(deg)": 0.026143385963342765,
        "Eccentricity": 0.0,
        "Inclination(deg)": 53.0,
        "Latitude(deg)": -47.729834656671066,
        "Longitude(deg)": 41.322065075189926,
        "Mean Anomaly(deg)": -67.53315973324635,
        "RAAN(deg)": 199.96109224418956,
        "Satellite Name": "Starlink Shell 1 895",
        "Satellite Number": 895,
        "Semi-Major Axis(m)": 6931778.249405717,
        "Time(s)": 750
    }
]